[{"OBJECT_NAME":"ONEWEB-0435","OBJECT_ID":"2022-012L","EPOCH":"2025-12-28T05:32:50.377632","MEAN_MOTION":13.10374639,"ECCENTRICITY":0.00018212,"INCLINATION":87.8799,"RA_OF_ASC_NODE":70.3658,"ARG_OF_PERICENTER":89.7853,"MEAN_ANOMALY":270.3483,"EPHEMERIS_TYPE":0,"CLASSIFICATION_TYPE":"U","NORAD_CAT_ID":51632,"ELEMENT_SET_NO":999,"REV_AT_EPOCH":18692,"BSTAR":-0.0018060907,"MEAN_MOTION_DOT":-6.18e-6,"MEAN_MOTION_DDOT":0},{"OBJECT_NAME":"ONEWEB-0436","OBJECT_ID":"2022-012M","EPOCH":"2025-12-28T03:04:22.331136","MEAN_MOTION":13.17649102,"ECCENTRICITY":0.00017114,"INCLINATION":87.9101,"RA_OF_ASC_NODE":39.8441,"ARG_OF_PERICENTER":89.7793,"MEAN_ANOMALY":270.3535,"EPHEMERIS_TYPE":0,"CLASSIFICATION_TYPE":"U","NORAD_CAT_ID":51633,"ELEMENT_SET_NO":999,"REV_AT_EPOCH":19115,"BSTAR":0.0001507151,"MEAN_MOTION_DOT":7.1e-7,"MEAN_MOTION_DDOT":0},{"OBJECT_NAME":"ONEWEB-0438","OBJECT_ID":"2022-012N","EPOCH":"2025-12-28T05:08:56.999904","MEAN_MOTION":13.10370949,"ECCENTRICITY":0.00019018,"INCLINATION":87.8791,"RA_OF_ASC_NODE":70.3699,"ARG_OF_PERICENTER":108.3688,"MEAN_ANOMALY":251.7646,"EPHEMERIS_TYPE":0,"CLASSIFICATION_TYPE":"U","NORAD_CAT_ID":51634,"ELEMENT_SET_NO":999,"REV_AT_EPOCH":18695,"BSTAR":-0.0011893518,"MEAN_MOTION_DOT":-4.02e-6,"MEAN_MOTION_DDOT":0},{"OBJECT_NAME":"ONEWEB-0439","OBJECT_ID":"2022-012P","EPOCH":"2025-12-28T05:13:42.971808","MEAN_MOTION":13.10370911,"ECCENTRICITY":0.00018362,"INCLINATION":87.8796,"RA_OF_ASC_NODE":70.3579,"ARG_OF_PERICENTER":101.6277,"MEAN_ANOMALY":258.5056,"EPHEMERIS_TYPE":0,"CLASSIFICATION_TYPE":"U","NORAD_CAT_ID":51635,"ELEMENT_SET_NO":999,"REV_AT_EPOCH":18693,"BSTAR":-0.0016002847,"MEAN_MOTION_DOT":-5.46e-6,"MEAN_MOTION_DDOT":0},{"OBJECT_NAME":"ONEWEB-0442","OBJECT_ID":"2022-012Q","EPOCH":"2025-12-28T02:53:25.713600","MEAN_MOTION":13.17647857,"ECCENTRICITY":0.00020095,"INCLINATION":87.9091,"RA_OF_ASC_NODE":39.8922,"ARG_OF_PERICENTER":114.7845,"MEAN_ANOMALY":245.3496,"EPHEMERIS_TYPE":0,"CLASSIFICATION_TYPE":"U","NORAD_CAT_ID":51636,"ELEMENT_SET_NO":999,"REV_AT_EPOCH":19114,"BSTAR":0.00013976351,"MEAN_MOTION_DOT":6.7e-7,"MEAN_MOTION_DDOT":0},{"OBJECT_NAME":"ONEWEB-0443","OBJECT_ID":"2022-012R","EPOCH":"2025-12-28T03:21:22.732416","MEAN_MOTION":13.17649421,"ECCENTRICITY":0.00021232,"INCLINATION":87.9094,"RA_OF_ASC_NODE":39.8933,"ARG_OF_PERICENTER":98.6008,"MEAN_ANOMALY":261.5364,"EPHEMERIS_TYPE":0,"CLASSIFICATION_TYPE":"U","NORAD_CAT_ID":51637,"ELEMENT_SET_NO":999,"REV_AT_EPOCH":19119,"BSTAR":2.0476117e-5,"MEAN_MOTION_DOT":2.1e-7,"MEAN_MOTION_DDOT":0},{"OBJECT_NAME":"ONEWEB-0444","OBJECT_ID":"2022-012S","EPOCH":"2025-12-28T04:59:23.842176","MEAN_MOTION":13.10370348,"ECCENTRICITY":0.00017933,"INCLINATION":87.879,"RA_OF_ASC_NODE":70.3581,"ARG_OF_PERICENTER":104.1366,"MEAN_ANOMALY":255.9961,"EPHEMERIS_TYPE":0,"CLASSIFICATION_TYPE":"U","NORAD_CAT_ID":51638,"ELEMENT_SET_NO":999,"REV_AT_EPOCH":18694,"BSTAR":-0.00049666351,"MEAN_MOTION_DOT":-1.61e-6,"MEAN_MOTION_DDOT":0},{"OBJECT_NAME":"ONEWEB-0445","OBJECT_ID":"2022-012T","EPOCH":"2025-12-28T05:30:25.457184","MEAN_MOTION":13.10371789,"ECCENTRICITY":0.00016459,"INCLINATION":87.8813,"RA_OF_ASC_NODE":70.3241,"ARG_OF_PERICENTER":109.6158,"MEAN_ANOMALY":250.5147,"EPHEMERIS_TYPE":0,"CLASSIFICATION_TYPE":"U","NORAD_CAT_ID":51639,"ELEMENT_SET_NO":999,"REV_AT_EPOCH":18695,"BSTAR":-0.0018610575,"MEAN_MOTION_DOT":-6.37e-6,"MEAN_MOTION_DDOT":0},{"OBJECT_NAME":"ONEWEB-0446","OBJECT_ID":"2022-012U","EPOCH":"2025-12-28T04:57:01.279584","MEAN_MOTION":13.10373438,"ECCENTRICITY":0.0001597,"INCLINATION":87.8793,"RA_OF_ASC_NODE":70.3754,"ARG_OF_PERICENTER":107.2007,"MEAN_ANOMALY":252.9295,"EPHEMERIS_TYPE":0,"CLASSIFICATION_TYPE":"U","NORAD_CAT_ID":51640,"ELEMENT_SET_NO":999,"REV_AT_EPOCH":18693,"BSTAR":-0.00021900169,"MEAN_MOTION_DOT":-6.4e-7,"MEAN_MOTION_DDOT":0},{"OBJECT_NAME":"ONEWEB-0448","OBJECT_ID":"2022-012V","EPOCH":"2025-12-28T05:04:10.157952","MEAN_MOTION":13.10370621,"ECCENTRICITY":0.00017784,"INCLINATION":87.8796,"RA_OF_ASC_NODE":70.3737,"ARG_OF_PERICENTER":102.1636,"MEAN_ANOMALY":257.9691,"EPHEMERIS_TYPE":0,"CLASSIFICATION_TYPE":"U","NORAD_CAT_ID":51641,"ELEMENT_SET_NO":999,"REV_AT_EPOCH":18690,"BSTAR":-0.00090647782,"MEAN_MOTION_DOT":-3.04e-6,"MEAN_MOTION_DDOT":0},{"OBJECT_NAME":"ONEWEB-0449","OBJECT_ID":"2022-012W","EPOCH":"2025-12-28T05:11:19.649760","MEAN_MOTION":13.10370046,"ECCENTRICITY":0.00021582,"INCLINATION":87.8795,"RA_OF_ASC_NODE":70.3457,"ARG_OF_PERICENTER":110.2039,"MEAN_ANOMALY":249.9321,"EPHEMERIS_TYPE":0,"CLASSIFICATION_TYPE":"U","NORAD_CAT_ID":51642,"ELEMENT_SET_NO":999,"REV_AT_EPOCH":18691,"BSTAR":-0.00157427,"MEAN_MOTION_DOT":-5.37e-6,"MEAN_MOTION_DDOT":0},{"OBJECT_NAME":"ONEWEB-0451","OBJECT_ID":"2022-012X","EPOCH":"2025-12-28T02:59:30.648192","MEAN_MOTION":13.17648928,"ECCENTRICITY":0.00019008,"INCLINATION":87.9103,"RA_OF_ASC_NODE":39.8403,"ARG_OF_PERICENTER":98.8492,"MEAN_ANOMALY":261.2855,"EPHEMERIS_TYPE":0,"CLASSIFICATION_TYPE":"U","NORAD_CAT_ID":51643,"ELEMENT_SET_NO":999,"REV_AT_EPOCH":19113,"BSTAR":0.00012305171,"MEAN_MOTION_DOT":6.1e-7,"MEAN_MOTION_DDOT":0},{"OBJECT_NAME":"ONEWEB-0452","OBJECT_ID":"2022-012Y","EPOCH":"2025-12-28T02:57:02.661408","MEAN_MOTION":13.17650699,"ECCENTRICITY":0.00021166,"INCLINATION":87.9094,"RA_OF_ASC_NODE":39.8942,"ARG_OF_PERICENTER":97.2244,"MEAN_ANOMALY":262.9128,"EPHEMERIS_TYPE":0,"CLASSIFICATION_TYPE":"U","NORAD_CAT_ID":51644,"ELEMENT_SET_NO":999,"REV_AT_EPOCH":19114,"BSTAR":-0.0014745623,"MEAN_MOTION_DOT":-5.6e-6,"MEAN_MOTION_DDOT":0},{"OBJECT_NAME":"ONEWEB-0456","OBJECT_ID":"2022-012AA","EPOCH":"2025-12-28T05:25:39.923328","MEAN_MOTION":13.10373196,"ECCENTRICITY":0.00016835,"INCLINATION":87.8812,"RA_OF_ASC_NODE":70.3152,"ARG_OF_PERICENTER":97.1088,"MEAN_ANOMALY":263.023,"EPHEMERIS_TYPE":0,"CLASSIFICATION_TYPE":"U","NORAD_CAT_ID":51646,"ELEMENT_SET_NO":999,"REV_AT_EPOCH":18695,"BSTAR":-0.0017954833,"MEAN_MOTION_DOT":-6.14e-6,"MEAN_MOTION_DDOT":0},{"OBJECT_NAME":"ONEWEB-0457","OBJECT_ID":"2022-012AB","EPOCH":"2025-12-28T04:52:13.671264","MEAN_MOTION":13.10369723,"ECCENTRICITY":0.00017677,"INCLINATION":87.8791,"RA_OF_ASC_NODE":70.3639,"ARG_OF_PERICENTER":120.8283,"MEAN_ANOMALY":239.3019,"EPHEMERIS_TYPE":0,"CLASSIFICATION_TYPE":"U","NORAD_CAT_ID":51647,"ELEMENT_SET_NO":999,"REV_AT_EPOCH":18695,"BSTAR":0.00041473766,"MEAN_MOTION_DOT":1.57e-6,"MEAN_MOTION_DDOT":0},{"OBJECT_NAME":"ONEWEB-0458","OBJECT_ID":"2022-012AC","EPOCH":"2025-12-28T05:23:16.667808","MEAN_MOTION":13.1037229,"ECCENTRICITY":0.00019343,"INCLINATION":87.8812,"RA_OF_ASC_NODE":70.3355,"ARG_OF_PERICENTER":103.4001,"MEAN_ANOMALY":256.7342,"EPHEMERIS_TYPE":0,"CLASSIFICATION_TYPE":"U","NORAD_CAT_ID":51648,"ELEMENT_SET_NO":999,"REV_AT_EPOCH":18691,"BSTAR":-0.0018344259,"MEAN_MOTION_DOT":-6.28e-6,"MEAN_MOTION_DDOT":0}]
