ONEWEB-0435             
1 51632U 22012L   25362.23113863 -.00000618  00000+0 -18061-2 0  9993
2 51632  87.8799  70.3658 0001821  89.7853 270.3483 13.10374639186928
ONEWEB-0436             
1 51633U 22012M   25362.12803624  .00000071  00000+0  15072-3 0  9994
2 51633  87.9101  39.8441 0001711  89.7793 270.3535 13.17649102191154
ONEWEB-0438             
1 51634U 22012N   25362.21454861 -.00000402  00000+0 -11894-2 0  9997
2 51634  87.8791  70.3699 0001901 108.3688 251.7646 13.10370949186957
ONEWEB-0439             
1 51635U 22012P   25362.21785847 -.00000546  00000+0 -16003-2 0  9995
2 51635  87.8796  70.3579 0001836 101.6277 258.5056 13.10370911186934
ONEWEB-0442             
1 51636U 22012Q   25362.12043650  .00000067  00000+0  13976-3 0  9998
2 51636  87.9091  39.8922 0002009 114.7845 245.3496 13.17647857191149
ONEWEB-0443             
1 51637U 22012R   25362.13984644  .00000021  00000+0  20476-4 0  9991
2 51637  87.9094  39.8933 0002123  98.6008 261.5364 13.17649421191191
ONEWEB-0444             
1 51638U 22012S   25362.20791484 -.00000161  00000+0 -49666-3 0  9996
2 51638  87.8790  70.3581 0001793 104.1366 255.9961 13.10370348186944
ONEWEB-0445             
1 51639U 22012T   25362.22946131 -.00000637  00000+0 -18611-2 0  9993
2 51639  87.8813  70.3241 0001645 109.6158 250.5147 13.10371789186957
ONEWEB-0446             
1 51640U 22012U   25362.20626481 -.00000064  00000+0 -21900-3 0  9996
2 51640  87.8793  70.3754 0001597 107.2007 252.9295 13.10373438186939
ONEWEB-0448             
1 51641U 22012V   25362.21122868 -.00000304  00000+0 -90648-3 0  9990
2 51641  87.8796  70.3737 0001778 102.1636 257.9691 13.10370621186900
ONEWEB-0449             
1 51642U 22012W   25362.21619965 -.00000537  00000+0 -15743-2 0  9990
2 51642  87.8795  70.3457 0002158 110.2039 249.9321 13.10370046186912
ONEWEB-0451             
1 51643U 22012X   25362.12466028  .00000061  00000+0  12305-3 0  9993
2 51643  87.9103  39.8403 0001900  98.8492 261.2855 13.17648928191139
ONEWEB-0452             
1 51644U 22012Y   25362.12294747 -.00000560  00000+0 -14746-2 0  9997
2 51644  87.9094  39.8942 0002116  97.2244 262.9128 13.17650699191145
ONEWEB-0456             
1 51646U 22012AA  25362.22615652 -.00000614  00000+0 -17955-2 0  9997
2 51646  87.8812  70.3152 0001683  97.1088 263.0230 13.10373196186956
ONEWEB-0457             
1 51647U 22012AB  25362.20293601  .00000157  00000+0  41474-3 0  9996
2 51647  87.8791  70.3639 0001767 120.8283 239.3019 13.10369723186959
ONEWEB-0458             
1 51648U 22012AC  25362.22449847 -.00000628  00000+0 -18344-2 0  9998
2 51648  87.8812  70.3355 0001934 103.4001 256.7342 13.10372290186911
